{
  "links" : {
    "next" : "https://api.nasa.gov/neo/rest/v1/feed?start_date=2009-02-23&end_date=2009-02-23&detailed=true&api_key=t0TVs3DtDT2H8Oy2Zy8m2eVrNsAVKAexjcZXUckd",
    "prev" : "https://api.nasa.gov/neo/rest/v1/feed?start_date=2009-02-21&end_date=2009-02-21&detailed=true&api_key=t0TVs3DtDT2H8Oy2Zy8m2eVrNsAVKAexjcZXUckd",
    "self" : "https://api.nasa.gov/neo/rest/v1/feed?start_date=2009-02-22&end_date=2009-02-22&detailed=true&api_key=t0TVs3DtDT2H8Oy2Zy8m2eVrNsAVKAexjcZXUckd"
  },
  "element_count" : 8,
  "near_earth_objects" : {
    "2009-02-22" : [ {
      "links" : {
        "self" : "https://api.nasa.gov/neo/rest/v1/neo/3712627?api_key=t0TVs3DtDT2H8Oy2Zy8m2eVrNsAVKAexjcZXUckd"
      },
      "neo_reference_id" : "3712627",
      "name" : "(2015 DK200)",
      "nasa_jpl_url" : "http://ssd.jpl.nasa.gov/sbdb.cgi?sstr=3712627",
      "absolute_magnitude_h" : 25.6,
      "estimated_diameter" : {
        "kilometers" : {
          "estimated_diameter_min" : 0.0201629919,
          "estimated_diameter_max" : 0.0450858206
        },
        "meters" : {
          "estimated_diameter_min" : 20.1629919443,
          "estimated_diameter_max" : 45.0858206172
        },
        "miles" : {
          "estimated_diameter_min" : 0.0125286985,
          "estimated_diameter_max" : 0.0280150214
        },
        "feet" : {
          "estimated_diameter_min" : 66.1515504905,
          "estimated_diameter_max" : 147.9193637137
        }
      },
      "is_potentially_hazardous_asteroid" : false,
      "close_approach_data" : [ {
        "close_approach_date" : "2009-02-22",
        "epoch_date_close_approach" : 1235289600000,
        "relative_velocity" : {
          "kilometers_per_second" : "14.0872878741",
          "kilometers_per_hour" : "50714.2363465822",
          "miles_per_hour" : "31511.8542454638"
        },
        "miss_distance" : {
          "astronomical" : "0.1928208713",
          "lunar" : "75.0073242188",
          "kilometers" : "28845592",
          "miles" : "17923820"
        },
        "orbiting_body" : "Earth"
      } ],
      "orbital_data" : {
        "orbit_id" : "11",
        "orbit_determination_date" : "2017-04-06 08:35:19",
        "orbit_uncertainty" : "7",
        "minimum_orbit_intersection" : ".0145225",
        "jupiter_tisserand_invariant" : "4.917",
        "epoch_osculation" : "2458000.5",
        "eccentricity" : ".3252947999404099",
        "semi_major_axis" : "1.311327914152899",
        "inclination" : "1.813847793385589",
        "ascending_node_longitude" : "15.7333509278789",
        "orbital_period" : "548.485796996617",
        "perihelion_distance" : ".884759762662257",
        "perihelion_argument" : "207.9942505886786",
        "aphelion_distance" : "1.737896065643542",
        "perihelion_time" : "2458231.229799297412",
        "mean_anomaly" : "208.5599295334522",
        "mean_motion" : ".6563524561096711",
        "equinox" : "J2000"
      }
    }, {
      "links" : {
        "self" : "https://api.nasa.gov/neo/rest/v1/neo/3714538?api_key=t0TVs3DtDT2H8Oy2Zy8m2eVrNsAVKAexjcZXUckd"
      },
      "neo_reference_id" : "3714538",
      "name" : "(2015 FQ118)",
      "nasa_jpl_url" : "http://ssd.jpl.nasa.gov/sbdb.cgi?sstr=3714538",
      "absolute_magnitude_h" : 20.5,
      "estimated_diameter" : {
        "kilometers" : {
          "estimated_diameter_min" : 0.2111324448,
          "estimated_diameter_max" : 0.4721064988
        },
        "meters" : {
          "estimated_diameter_min" : 211.1324447897,
          "estimated_diameter_max" : 472.1064988055
        },
        "miles" : {
          "estimated_diameter_min" : 0.1311915784,
          "estimated_diameter_max" : 0.2933532873
        },
        "feet" : {
          "estimated_diameter_min" : 692.6917701639,
          "estimated_diameter_max" : 1548.9058855411
        }
      },
      "is_potentially_hazardous_asteroid" : false,
      "close_approach_data" : [ {
        "close_approach_date" : "2009-02-22",
        "epoch_date_close_approach" : 1235289600000,
        "relative_velocity" : {
          "kilometers_per_second" : "14.6334289964",
          "kilometers_per_hour" : "52680.3443870094",
          "miles_per_hour" : "32733.5173220281"
        },
        "miss_distance" : {
          "astronomical" : "0.4735156173",
          "lunar" : "184.1975860596",
          "kilometers" : "70836928",
          "miles" : "44016028"
        },
        "orbiting_body" : "Earth"
      } ],
      "orbital_data" : {
        "orbit_id" : "13",
        "orbit_determination_date" : "2017-04-06 08:34:45",
        "orbit_uncertainty" : "3",
        "minimum_orbit_intersection" : ".342825",
        "jupiter_tisserand_invariant" : "5.399",
        "epoch_osculation" : "2458000.5",
        "eccentricity" : ".5293838137652779",
        "semi_major_axis" : "1.111806269565722",
        "inclination" : "23.51332793440759",
        "ascending_node_longitude" : "189.0527128438515",
        "orbital_period" : "428.1955059945262",
        "perihelion_distance" : ".5232340264148737",
        "perihelion_argument" : "188.3770999928933",
        "aphelion_distance" : "1.700378512716571",
        "perihelion_time" : "2458204.599863389943",
        "mean_anomaly" : "188.4056002649433",
        "mean_motion" : ".8407374551114555",
        "equinox" : "J2000"
      }
    } ]
  }
}